NORAD_CAT_ID,OBJECT_NAME,OBJECT_TYPE,EPOCH,MEAN_MOTION,ECCENTRICITY,INCLINATION,RA_OF_ASC_NODE,ARG_OF_PERICENTER,MEAN_ANOMALY,BSTAR,MEAN_MOTION_DOT,MEAN_MOTION_DDOT,TLE_LINE0,TLE_LINE1,TLE_LINE2,SEMIMAJOR_AXIS,PERIOD,APOGEE,PERIGEE,DECAYED
55762.0,STARLINK-5603,PAYLOAD,2023-12-22 13:57:32,14.98333354,0.0002581,70.0007,102.0976,258.9214,101.1655,-0.00026933,-3.305e-05,0.0,0 STARLINK-5603,1 55762U 23028X   23356.58162975 -.00003305  00000-0 -26933-3 0  9991,2 55762  70.0007 102.0976 0002581 258.9214 101.1655 14.98333354 45486,6950.183,96.107,573.841,570.254,0.0
55762.0,STARLINK-5603,PAYLOAD,2023-12-22 17:09:48,14.98334259,0.0002587,70.0009,101.7615,259.0599,101.0269,-0.00022269,-2.749e-05,0.0,0 STARLINK-5603,1 55762U 23028X   23356.71514762 -.00002749  00000-0 -22269-3 0  9990,2 55762  70.0009 101.7615 0002587 259.0599 101.0269 14.98334259 45506,6950.18,96.107,573.843,570.247,0.0
55762.0,STARLINK-5603,PAYLOAD,2023-12-23 12:23:25,14.98320929,0.0002665,70.0009,99.7417,267.892,92.1934,0.00011222,1.246e-05,0.0,0 STARLINK-5603,1 55762U 23028X   23357.51626790  .00001246  00000-0  11222-3 0  9990,2 55762  70.0009  99.7417 0002665 267.8920  92.1934 14.98320929 45625,6950.221,96.108,573.938,570.234,0.0
55762.0,STARLINK-5603,PAYLOAD,2023-12-23 13:59:33,14.98324069,0.0002523,70.001,99.5732,263.4034,96.6838,0.00010038,1.105e-05,0.0,0 STARLINK-5603,1 55762U 23028X   23357.58302637  .00001105  00000-0  10038-3 0  9996,2 55762  70.0010  99.5732 0002523 263.4034  96.6838 14.98324069 45638,6950.211,96.107,573.83,570.323,0.0
55762.0,STARLINK-5603,PAYLOAD,2023-12-23 17:11:49,14.98327465,0.0002744,70.0007,99.2371,266.1011,93.9835,0.00012851,1.441e-05,0.0,0 STARLINK-5603,1 55762U 23028X   23357.71654415  .00001441  00000-0  12851-3 0  9993,2 55762  70.0007  99.2371 0002744 266.1011  93.9835 14.98327465 45652,6950.201,96.107,573.973,570.159,0.0
55762.0,STARLINK-5603,PAYLOAD,2023-12-24 14:01:34,14.98335267,0.0002153,70.0012,97.0482,258.6301,101.4616,-1.4821e-05,-2.7e-06,0.0,0 STARLINK-5603,1 55762U 23028X   23358.58442464 -.00000270  00000-0 -14821-4 0  9999,2 55762  70.0012  97.0482 0002153 258.6301 101.4616 14.98335267 45784,6950.177,96.107,573.538,570.545,0.0
55762.0,STARLINK-5603,PAYLOAD,2023-12-24 15:37:42,14.98343258,0.0002219,70.0012,96.8798,261.09,99.0008,-0.00014424,-1.814e-05,0.0,0 STARLINK-5603,1 55762U 23028X   23358.65118256 -.00001814  00000-0 -14424-3 0  9999,2 55762  70.0012  96.8798 0002219 261.0900  99.0008 14.98343258 45794,6950.152,96.106,573.559,570.475,0.0
55762.0,STARLINK-5603,PAYLOAD,2023-12-25 12:27:27,14.98329493,0.0002998,70.0001,94.6915,262.4961,97.5857,-2.3438e-05,-3.73e-06,0.0,0 STARLINK-5603,1 55762U 23028X   23359.51906729 -.00000373  00000-0 -23438-4 0  9990,2 55762  70.0001  94.6915 0002998 262.4961  97.5857 14.98329493 45920,6950.194,96.107,574.143,569.976,0.0
55762.0,STARLINK-5603,PAYLOAD,2023-12-25 14:03:35,14.98326599,0.000262,70.0007,94.5228,258.9839,101.1025,6.8657e-06,-1.1e-07,0.0,0 STARLINK-5603,1 55762U 23028X   23359.58582869 -.00000011  00000-0  68657-5 0  9993,2 55762  70.0007  94.5228 0002620 258.9839 101.1025 14.98326599 45932,6950.203,96.107,573.889,570.247,0.0
55762.0,STARLINK-5603,PAYLOAD,2023-12-25 15:39:43,14.98330001,0.0002822,70.0001,94.3543,262.2327,97.8512,-1.4243e-05,-2.63e-06,0.0,0 STARLINK-5603,1 55762U 23028X   23359.65258685 -.00000263  00000-0 -14243-4 0  9998,2 55762  70.0001  94.3543 0002822 262.2327  97.8512 14.98330001 45944,6950.193,96.107,574.019,570.097,0.0
55762.0,STARLINK-5603,PAYLOAD,2023-12-26 14:05:36,14.98330231,0.0002691,70.0013,91.9974,262.7527,97.3326,-8.3229e-05,-1.086e-05,0.0,0 STARLINK-5603,1 55762U 23028X   23360.58722903 -.00001086  00000-0 -83229-4 0  9995,2 55762  70.0013  91.9974 0002691 262.7527  97.3326 14.98330231 46088,6950.192,96.107,573.927,570.187,0.0
55762.0,STARLINK-5603,PAYLOAD,2023-12-26 15:41:44,14.98331956,0.0002661,70.001,91.8298,267.2497,92.8358,-9.0924e-06,-2.01e-06,0.0,0 STARLINK-5603,1 55762U 23028X   23360.65398640 -.00000201  00000-0 -90924-5 0  9999,2 55762  70.0010  91.8298 0002661 267.2497  92.8358 14.98331956 46097,6950.187,96.107,573.901,570.202,0.0
55762.0,STARLINK-5603,PAYLOAD,2023-12-27 14:07:37,14.98326964,0.0002638,70.0014,89.4748,247.3592,112.7288,5.7139e-05,5.89e-06,0.0,0 STARLINK-5603,1 55762U 23028X   23361.58862749  .00000589  00000-0  57139-4 0  9995,2 55762  70.0014  89.4748 0002638 247.3592 112.7288 14.98326964 46236,6950.202,96.107,573.901,570.234,0.0
55762.0,STARLINK-5603,PAYLOAD,2023-12-27 15:43:45,14.98327187,0.0002465,70.0012,89.304,268.685,91.4027,0.00012382,1.385e-05,0.0,0 STARLINK-5603,1 55762U 23028X   23361.65538735  .00001385  00000-0  12382-3 0  9993,2 55762  70.0012  89.3040 0002465 268.6850  91.4027 14.98327187 46242,6950.202,96.107,573.78,570.353,0.0
55762.0,STARLINK-5603,PAYLOAD,2023-12-28 14:09:38,14.98332085,0.0002643,70.0009,86.9497,257.6369,102.4494,6.9227e-05,7.33e-06,0.0,0 STARLINK-5603,1 55762U 23028X   23362.59002334  .00000733  00000-0  69227-4 0  9995,2 55762  70.0009  86.9497 0002643 257.6369 102.4494 14.98332085 46387,6950.186,96.107,573.888,570.215,0.0
55762.0,STARLINK-5603,PAYLOAD,2023-12-28 15:45:46,14.98332067,0.0002713,70.0007,86.7811,259.7959,100.2894,8.1547e-05,8.8e-06,0.0,0 STARLINK-5603,1 55762U 23028X   23362.65678297  .00000880  00000-0  81547-4 0  9991,2 55762  70.0007  86.7811 0002713 259.7959 100.2894 14.98332067 46390,6950.186,96.107,573.937,570.166,0.0
55762.0,STARLINK-5603,PAYLOAD,2023-12-29 10:59:23,14.98327806,0.000259,70.0008,84.76,252.8606,107.227,-1.6473e-05,-2.89e-06,0.0,0 STARLINK-5603,1 55762U 23028X   23363.45790742 -.00000289  00000-0 -16473-4 0  9991,2 55762  70.0008  84.7600 0002590 252.8606 107.2270 14.98327806 46515,6950.2,96.107,573.865,570.265,0.0
55762.0,STARLINK-5603,PAYLOAD,2023-12-29 14:11:39,14.98327961,0.000258,70.0011,84.4238,255.1642,104.9231,-1.1586e-05,-2.31e-06,0.0,0 STARLINK-5603,1 55762U 23028X   23363.59142773 -.00000231  00000-0 -11586-4 0  9998,2 55762  70.0011  84.4238 0002580 255.1642 104.9231 14.98327961 46533,6950.199,96.107,573.857,570.271,0.0
55762.0,STARLINK-5603,PAYLOAD,2023-12-30 11:01:23,14.98335774,0.0002905,70.0001,82.2365,258.6523,101.431,-1.6217e-06,-1.12e-06,0.0,0 STARLINK-5603,1 55762U 23028X   23364.45930084 -.00000112  00000-0 -16217-5 0  9999,2 55762  70.0001  82.2365 0002905 258.6523 101.4310 14.98335774 46661,6950.175,96.107,574.059,570.021,0.0
55762.0,STARLINK-5603,PAYLOAD,2023-12-30 14:13:39,14.98335877,0.000287,70.0003,81.9,256.7184,103.3655,1.8972e-06,-7e-07,0.0,0 STARLINK-5603,1 55762U 23028X   23364.59281999 -.00000070  00000-0  18972-5 0  9990,2 55762  70.0003  81.9000 0002870 256.7184 103.3655 14.98335877 46687,6950.175,96.107,574.034,570.045,0.0
55762.0,STARLINK-5603,PAYLOAD,2023-12-30 15:49:47,14.98333389,0.0002894,70.0004,81.7298,272.2896,87.7932,3.6768e-05,3.46e-06,0.0,0 STARLINK-5603,1 55762U 23028X   23364.65958142  .00000346  00000-0  36768-4 0  9995,2 55762  70.0004  81.7298 0002894 272.2896  87.7932 14.98333389 46694,6950.182,96.107,574.059,570.036,0.0
55762.0,STARLINK-5603,PAYLOAD,2023-12-31 11:03:25,14.98321344,0.0002707,70.0,79.7099,263.7788,96.3063,2.7392e-05,2.34e-06,0.0,0 STARLINK-5603,1 55762U 23028X   23365.46070884  .00000234  00000-0  27392-4 0  9992,2 55762  70.0000  79.7099 0002707 263.7788  96.3063 14.98321344 46817,6950.22,96.108,573.966,570.203,0.0
55762.0,STARLINK-5603,PAYLOAD,2023-12-31 15:51:49,14.98324633,0.0002643,70.0001,79.2048,262.3621,97.7238,4.205e-05,4.09e-06,0.0,0 STARLINK-5603,1 55762U 23028X   23365.66098700  .00000409  00000-0  42050-4 0  9993,2 55762  70.0001  79.2048 0002643 262.3621  97.7238 14.98324633 46843,6950.209,96.107,573.911,570.238,0.0
55762.0,STARLINK-5603,PAYLOAD,2024-01-01 11:05:25,14.98329898,0.0002889,69.9999,77.1851,260.5526,99.5306,-1.3278e-05,-2.51e-06,0.0,0 STARLINK-5603,1 55762U 23028X   24001.46210446 -.00000251  00000-0 -13278-4 0  9999,2 55762  69.9999  77.1851 0002889 260.5526  99.5306 14.98329898 46968,6950.193,96.107,574.066,570.05,0.0
55762.0,STARLINK-5603,PAYLOAD,2024-01-01 14:17:41,14.98331722,0.0002725,70.0001,76.8488,253.4926,106.5934,-5.7812e-07,-1e-06,0.0,0 STARLINK-5603,1 55762U 23028X   24001.59562268 -.00000100  00000-0 -57812-6 0  9992,2 55762  70.0001  76.8488 0002725 253.4926 106.5934 14.98331722 46988,6950.188,96.107,573.946,570.159,0.0
55762.0,STARLINK-5603,PAYLOAD,2024-01-02 11:07:26,14.98327235,0.0002848,70.0003,74.6608,262.4452,97.6384,2.9823e-05,2.63e-06,0.0,0 STARLINK-5603,1 55762U 23028X   24002.46350497  .00000263  00000-0  29823-4 0  9995,2 55762  70.0003  74.6608 0002848 262.4452  97.6384 14.98327235 47119,6950.201,96.107,574.046,570.087,0.0
55762.0,STARLINK-5603,PAYLOAD,2024-01-02 14:19:42,14.98329213,0.0002833,70.0003,74.3241,262.4031,97.6806,5.0497e-05,5.1e-06,0.0,0 STARLINK-5603,1 55762U 23028X   24002.59702317  .00000510  00000-0  50497-4 0  9997,2 55762  70.0003  74.3241 0002833 262.4031  97.6806 14.98329213 47135,6950.195,96.107,574.029,570.091,0.0
55762.0,STARLINK-5603,PAYLOAD,2024-01-03 11:09:27,14.98328098,0.0002759,70.0005,72.1364,259.3253,100.7596,-1.6627e-05,-2.91e-06,0.0,0 STARLINK-5603,1 55762U 23028X   24003.46490560 -.00000291  00000-0 -16627-4 0  9993,2 55762  70.0005  72.1364 0002759 259.3253 100.7596 14.98328098 47263,6950.199,96.107,573.981,570.146,0.0
55762.0,STARLINK-5603,PAYLOAD,2024-01-03 14:21:43,14.9832816,0.0002778,70.0004,71.7997,260.8057,99.2788,-1.8062e-05,-3.08e-06,0.0,0 STARLINK-5603,1 55762U 23028X   24003.59842574 -.00000308  00000-0 -18062-4 0  9997,2 55762  70.0004  71.7997 0002778 260.8057  99.2788 14.98328160 47286,6950.199,96.107,573.994,570.133,0.0
55762.0,STARLINK-5603,PAYLOAD,2024-01-04 11:11:28,14.98330059,0.0002901,70.0001,69.6098,264.4045,95.6783,1.712e-05,1.11e-06,0.0,0 STARLINK-5603,1 55762U 23028X   24004.46630330  .00000111  00000-0  17120-4 0  9993,2 55762  70.0001  69.6098 0002901 264.4045  95.6783 14.98330059 47416,6950.193,96.107,574.074,570.041,0.0
